0 FENGYUN 1C DEB
1 30229U 99025WN  13282.11211604  .00003108  00000-0  12400-2 0  8128
2 30229 099.0330 029.7482 0066430 131.2307 314.0752 14.28066594350139
0 FENGYUN 1C DEB
1 30229U 99025WN  13283.52188459  .00003048  00000-0  12164-2 0  8136
2 30229 099.0331 031.2059 0066366 127.2399 001.6796 14.28074945350330
0 FENGYUN 1C DEB
1 30229U 99025WN  13285.83267319  .00002439  00000-0  97704-3 0  8154
2 30229 099.0336 033.5957 0066261 120.6679 001.5296 14.28085954350661
0 FENGYUN 1C DEB
1 30229U 99025WN  13287.08534771  .00003075  00000-0  12267-2 0  8160
2 30229 099.0340 034.8912 0066225 117.0927 321.6388 14.28090155350844
0 FENGYUN 1C DEB
1 30229U 99025WN  13288.20499737  .00004088  00000-0  16241-2 0  8179
2 30229 099.0343 036.0494 0066169 113.8839 317.8832 14.28101004351005
0 FENGYUN 1C DEB
1 30229U 99025WN  13289.82543188  .00003436  00000-0  13680-2 0  8189
2 30229 099.0348 037.7253 0066077 109.2717 008.7543 14.28111742351233
0 FENGYUN 1C DEB
1 30229U 99025WN  13291.56709731  .00003699  00000-0  14709-2 0  8196
2 30229 099.0349 039.5268 0066026 104.2756 323.0037 14.28120198351485
0 FENGYUN 1C DEB
1 30229U 99025WN  13292.83835851  .00003258  00000-0  12978-2 0  8209
2 30229 099.0345 040.8418 0065893 100.6575 018.8175 14.28129642351668
0 FENGYUN 1C DEB
1 30229U 99025WN  13294.09151412  .00003846  00000-0  15286-2 0  8212
2 30229 099.0344 042.1382 0065840 097.0802 341.6019 14.28135585351843
0 FENGYUN 1C DEB
1 30229U 99025WN  13295.27771549  .00003941  00000-0  15655-2 0  8229
2 30229 099.0341 043.3652 0065795 093.6704 320.2040 14.28143071352000
